<?xml version="1.0" encoding="UTF-8"?>
<ndm xmlns:xsi="http://www.w3.org/2001/XMLSchema-instance" xsi:noNamespaceSchemaLocation="https://sanaregistry.org/r/ndmxml_unqualified/ndmxml-2.0.0-master-2.0.xsd">
<omm id="CCSDS_OMM_VERS" version="2.0">
<header><CREATION_DATE/><ORIGINATOR/></header><body><segment><metadata><OBJECT_NAME>ORBCOMM FM24</OBJECT_NAME><OBJECT_ID>1998-053D</OBJECT_ID><CENTER_NAME>EARTH</CENTER_NAME><REF_FRAME>TEME</REF_FRAME><TIME_SYSTEM>UTC</TIME_SYSTEM><MEAN_ELEMENT_THEORY>SGP4</MEAN_ELEMENT_THEORY></metadata><data><meanElements><EPOCH>2024-10-04T19:54:02.852352</EPOCH><MEAN_MOTION>14.36560815</MEAN_MOTION><ECCENTRICITY>.0000653</ECCENTRICITY><INCLINATION>45.0088</INCLINATION><RA_OF_ASC_NODE>38.6398</RA_OF_ASC_NODE><ARG_OF_PERICENTER>266.5859</ARG_OF_PERICENTER><MEAN_ANOMALY>93.4914</MEAN_ANOMALY></meanElements><tleParameters><EPHEMERIS_TYPE>0</EPHEMERIS_TYPE><CLASSIFICATION_TYPE>U</CLASSIFICATION_TYPE><NORAD_CAT_ID>25478</NORAD_CAT_ID><ELEMENT_SET_NO>999</ELEMENT_SET_NO><REV_AT_EPOCH>36070</REV_AT_EPOCH><BSTAR>.28081E-2</BSTAR><MEAN_MOTION_DOT>.8195E-4</MEAN_MOTION_DOT><MEAN_MOTION_DDOT>0</MEAN_MOTION_DDOT></tleParameters></data></segment></body></omm>
<omm id="CCSDS_OMM_VERS" version="2.0">
<header><CREATION_DATE/><ORIGINATOR/></header><body><segment><metadata><OBJECT_NAME>ORBCOMM FM25</OBJECT_NAME><OBJECT_ID>1998-053E</OBJECT_ID><CENTER_NAME>EARTH</CENTER_NAME><REF_FRAME>TEME</REF_FRAME><TIME_SYSTEM>UTC</TIME_SYSTEM><MEAN_ELEMENT_THEORY>SGP4</MEAN_ELEMENT_THEORY></metadata><data><meanElements><EPOCH>2024-10-04T15:47:49.125408</EPOCH><MEAN_MOTION>14.36544372</MEAN_MOTION><ECCENTRICITY>.000193</ECCENTRICITY><INCLINATION>45.0087</INCLINATION><RA_OF_ASC_NODE>37.7014</RA_OF_ASC_NODE><ARG_OF_PERICENTER>45.8086</ARG_OF_PERICENTER><MEAN_ANOMALY>314.2920</MEAN_ANOMALY></meanElements><tleParameters><EPHEMERIS_TYPE>0</EPHEMERIS_TYPE><CLASSIFICATION_TYPE>U</CLASSIFICATION_TYPE><NORAD_CAT_ID>25479</NORAD_CAT_ID><ELEMENT_SET_NO>999</ELEMENT_SET_NO><REV_AT_EPOCH>36097</REV_AT_EPOCH><BSTAR>.2858E-2</BSTAR><MEAN_MOTION_DOT>.834E-4</MEAN_MOTION_DOT><MEAN_MOTION_DDOT>0</MEAN_MOTION_DDOT></tleParameters></data></segment></body></omm>
<omm id="CCSDS_OMM_VERS" version="2.0">
<header><CREATION_DATE/><ORIGINATOR/></header><body><segment><metadata><OBJECT_NAME>ORBCOMM FM26</OBJECT_NAME><OBJECT_ID>1998-053F</OBJECT_ID><CENTER_NAME>EARTH</CENTER_NAME><REF_FRAME>TEME</REF_FRAME><TIME_SYSTEM>UTC</TIME_SYSTEM><MEAN_ELEMENT_THEORY>SGP4</MEAN_ELEMENT_THEORY></metadata><data><meanElements><EPOCH>2024-10-05T13:30:15.145920</EPOCH><MEAN_MOTION>14.35854106</MEAN_MOTION><ECCENTRICITY>.0004096</ECCENTRICITY><INCLINATION>45.0080</INCLINATION><RA_OF_ASC_NODE>28.2347</RA_OF_ASC_NODE><ARG_OF_PERICENTER>80.1504</ARG_OF_PERICENTER><MEAN_ANOMALY>279.9806</MEAN_ANOMALY></meanElements><tleParameters><EPHEMERIS_TYPE>0</EPHEMERIS_TYPE><CLASSIFICATION_TYPE>U</CLASSIFICATION_TYPE><NORAD_CAT_ID>25480</NORAD_CAT_ID><ELEMENT_SET_NO>999</ELEMENT_SET_NO><REV_AT_EPOCH>36113</REV_AT_EPOCH><BSTAR>.25915E-2</BSTAR><MEAN_MOTION_DOT>.7443E-4</MEAN_MOTION_DOT><MEAN_MOTION_DDOT>0</MEAN_MOTION_DDOT></tleParameters></data></segment></body></omm>
<omm id="CCSDS_OMM_VERS" version="2.0">
<header><CREATION_DATE/><ORIGINATOR/></header><body><segment><metadata><OBJECT_NAME>ORBCOMM FM27</OBJECT_NAME><OBJECT_ID>1998-053G</OBJECT_ID><CENTER_NAME>EARTH</CENTER_NAME><REF_FRAME>TEME</REF_FRAME><TIME_SYSTEM>UTC</TIME_SYSTEM><MEAN_ELEMENT_THEORY>SGP4</MEAN_ELEMENT_THEORY></metadata><data><meanElements><EPOCH>2024-10-05T11:34:06.480480</EPOCH><MEAN_MOTION>14.36548412</MEAN_MOTION><ECCENTRICITY>.0002035</ECCENTRICITY><INCLINATION>45.0066</INCLINATION><RA_OF_ASC_NODE>34.0622</RA_OF_ASC_NODE><ARG_OF_PERICENTER>225.2315</ARG_OF_PERICENTER><MEAN_ANOMALY>134.8367</MEAN_ANOMALY></meanElements><tleParameters><EPHEMERIS_TYPE>0</EPHEMERIS_TYPE><CLASSIFICATION_TYPE>U</CLASSIFICATION_TYPE><NORAD_CAT_ID>25481</NORAD_CAT_ID><ELEMENT_SET_NO>999</ELEMENT_SET_NO><REV_AT_EPOCH>36106</REV_AT_EPOCH><BSTAR>.25268E-2</BSTAR><MEAN_MOTION_DOT>.7357E-4</MEAN_MOTION_DOT><MEAN_MOTION_DDOT>0</MEAN_MOTION_DDOT></tleParameters></data></segment></body></omm>
<omm id="CCSDS_OMM_VERS" version="2.0">
<header><CREATION_DATE/><ORIGINATOR/></header><body><segment><metadata><OBJECT_NAME>ORBCOMM FM28</OBJECT_NAME><OBJECT_ID>1998-053H</OBJECT_ID><CENTER_NAME>EARTH</CENTER_NAME><REF_FRAME>TEME</REF_FRAME><TIME_SYSTEM>UTC</TIME_SYSTEM><MEAN_ELEMENT_THEORY>SGP4</MEAN_ELEMENT_THEORY></metadata><data><meanElements><EPOCH>2024-10-05T05:14:09.193344</EPOCH><MEAN_MOTION>14.36899612</MEAN_MOTION><ECCENTRICITY>.000187</ECCENTRICITY><INCLINATION>45.0062</INCLINATION><RA_OF_ASC_NODE>333.3205</RA_OF_ASC_NODE><ARG_OF_PERICENTER>122.4723</ARG_OF_PERICENTER><MEAN_ANOMALY>237.6306</MEAN_ANOMALY></meanElements><tleParameters><EPHEMERIS_TYPE>0</EPHEMERIS_TYPE><CLASSIFICATION_TYPE>U</CLASSIFICATION_TYPE><NORAD_CAT_ID>25482</NORAD_CAT_ID><ELEMENT_SET_NO>999</ELEMENT_SET_NO><REV_AT_EPOCH>36183</REV_AT_EPOCH><BSTAR>.24046E-2</BSTAR><MEAN_MOTION_DOT>.7044E-4</MEAN_MOTION_DOT><MEAN_MOTION_DDOT>0</MEAN_MOTION_DDOT></tleParameters></data></segment></body></omm>
<omm id="CCSDS_OMM_VERS" version="2.0">
<header><CREATION_DATE/><ORIGINATOR/></header><body><segment><metadata><OBJECT_NAME>ORBCOMM FM30</OBJECT_NAME><OBJECT_ID>1999-065A</OBJECT_ID><CENTER_NAME>EARTH</CENTER_NAME><REF_FRAME>TEME</REF_FRAME><TIME_SYSTEM>UTC</TIME_SYSTEM><MEAN_ELEMENT_THEORY>SGP4</MEAN_ELEMENT_THEORY></metadata><data><meanElements><EPOCH>2024-10-05T03:54:10.968480</EPOCH><MEAN_MOTION>14.35997619</MEAN_MOTION><ECCENTRICITY>.0004783</ECCENTRICITY><INCLINATION>45.0307</INCLINATION><RA_OF_ASC_NODE>215.7990</RA_OF_ASC_NODE><ARG_OF_PERICENTER>175.4188</ARG_OF_PERICENTER><MEAN_ANOMALY>184.6704</MEAN_ANOMALY></meanElements><tleParameters><EPHEMERIS_TYPE>0</EPHEMERIS_TYPE><CLASSIFICATION_TYPE>U</CLASSIFICATION_TYPE><NORAD_CAT_ID>25980</NORAD_CAT_ID><ELEMENT_SET_NO>999</ELEMENT_SET_NO><REV_AT_EPOCH>29830</REV_AT_EPOCH><BSTAR>.26281E-2</BSTAR><MEAN_MOTION_DOT>.7573E-4</MEAN_MOTION_DOT><MEAN_MOTION_DDOT>0</MEAN_MOTION_DDOT></tleParameters></data></segment></body></omm>
<omm id="CCSDS_OMM_VERS" version="2.0">
<header><CREATION_DATE/><ORIGINATOR/></header><body><segment><metadata><OBJECT_NAME>ORBCOMM FM31</OBJECT_NAME><OBJECT_ID>1999-065B</OBJECT_ID><CENTER_NAME>EARTH</CENTER_NAME><REF_FRAME>TEME</REF_FRAME><TIME_SYSTEM>UTC</TIME_SYSTEM><MEAN_ELEMENT_THEORY>SGP4</MEAN_ELEMENT_THEORY></metadata><data><meanElements><EPOCH>2024-10-05T04:46:16.101408</EPOCH><MEAN_MOTION>14.35971929</MEAN_MOTION><ECCENTRICITY>.0002561</ECCENTRICITY><INCLINATION>45.0223</INCLINATION><RA_OF_ASC_NODE>209.2261</RA_OF_ASC_NODE><ARG_OF_PERICENTER>214.1658</ARG_OF_PERICENTER><MEAN_ANOMALY>145.9025</MEAN_ANOMALY></meanElements><tleParameters><EPHEMERIS_TYPE>0</EPHEMERIS_TYPE><CLASSIFICATION_TYPE>U</CLASSIFICATION_TYPE><NORAD_CAT_ID>25981</NORAD_CAT_ID><ELEMENT_SET_NO>999</ELEMENT_SET_NO><REV_AT_EPOCH>29830</REV_AT_EPOCH><BSTAR>.25182E-2</BSTAR><MEAN_MOTION_DOT>.7245E-4</MEAN_MOTION_DOT><MEAN_MOTION_DDOT>0</MEAN_MOTION_DDOT></tleParameters></data></segment></body></omm>
<omm id="CCSDS_OMM_VERS" version="2.0">
<header><CREATION_DATE/><ORIGINATOR/></header><body><segment><metadata><OBJECT_NAME>ORBCOMM FM32</OBJECT_NAME><OBJECT_ID>1999-065C</OBJECT_ID><CENTER_NAME>EARTH</CENTER_NAME><REF_FRAME>TEME</REF_FRAME><TIME_SYSTEM>UTC</TIME_SYSTEM><MEAN_ELEMENT_THEORY>SGP4</MEAN_ELEMENT_THEORY></metadata><data><meanElements><EPOCH>2024-10-04T20:45:21.563424</EPOCH><MEAN_MOTION>14.34988161</MEAN_MOTION><ECCENTRICITY>.0004639</ECCENTRICITY><INCLINATION>45.0147</INCLINATION><RA_OF_ASC_NODE>225.6446</RA_OF_ASC_NODE><ARG_OF_PERICENTER>209.2261</ARG_OF_PERICENTER><MEAN_ANOMALY>150.8327</MEAN_ANOMALY></meanElements><tleParameters><EPHEMERIS_TYPE>0</EPHEMERIS_TYPE><CLASSIFICATION_TYPE>U</CLASSIFICATION_TYPE><NORAD_CAT_ID>25982</NORAD_CAT_ID><ELEMENT_SET_NO>999</ELEMENT_SET_NO><REV_AT_EPOCH>29790</REV_AT_EPOCH><BSTAR>.24997E-2</BSTAR><MEAN_MOTION_DOT>.7049E-4</MEAN_MOTION_DOT><MEAN_MOTION_DDOT>0</MEAN_MOTION_DDOT></tleParameters></data></segment></body></omm>

</ndm>
