ORBCOMM FM24            
1 25478U 98053D   24278.82919968  .00008195  00000+0  28081-2 0  9999
2 25478  45.0088  38.6398 0000653 266.5859  93.4914 14.36560815360700
ORBCOMM FM25            
1 25479U 98053E   24278.65820747  .00008340  00000+0  28580-2 0  9993
2 25479  45.0087  37.7014 0001930  45.8086 314.2920 14.36544372360974
ORBCOMM FM26            
1 25480U 98053F   24279.56267530  .00007443  00000+0  25915-2 0  9993
2 25480  45.0080  28.2347 0004096  80.1504 279.9806 14.35854106361133
ORBCOMM FM27            
1 25481U 98053G   24279.48201945  .00007357  00000+0  25268-2 0  9998
2 25481  45.0066  34.0622 0002035 225.2315 134.8367 14.36548412361066
ORBCOMM FM28            
1 25482U 98053H   24279.21816196  .00007044  00000+0  24046-2 0  9996
2 25482  45.0062 333.3205 0001870 122.4723 237.6306 14.36899612361833
ORBCOMM FM30            
1 25980U 99065A   24279.16262695  .00007573  00000+0  26281-2 0  9996
2 25980  45.0307 215.7990 0004783 175.4188 184.6704 14.35997619298300
ORBCOMM FM31            
1 25981U 99065B   24279.19879747  .00007245  00000+0  25182-2 0  9997
2 25981  45.0223 209.2261 0002561 214.1658 145.9025 14.35971929298304
ORBCOMM FM32            
1 25982U 99065C   24278.86483291  .00007049  00000+0  24997-2 0  9991
2 25982  45.0147 225.6446 0004639 209.2261 150.8327 14.34988161297900
